<?xml version="1.0" encoding="UTF-8"?>
<ndm xmlns:xsi="http://www.w3.org/2001/XMLSchema-instance" xsi:noNamespaceSchemaLocation="https://sanaregistry.org/r/ndmxml_unqualified/ndmxml-2.0.0-master-2.0.xsd">
<omm id="CCSDS_OMM_VERS" version="2.0">
<header><CREATION_DATE/><ORIGINATOR/></header><body><segment><metadata><OBJECT_NAME>ONEWEB-0297</OBJECT_NAME><OBJECT_ID>2021-075M</OBJECT_ID><CENTER_NAME>EARTH</CENTER_NAME><REF_FRAME>TEME</REF_FRAME><TIME_SYSTEM>UTC</TIME_SYSTEM><MEAN_ELEMENT_THEORY>SGP4</MEAN_ELEMENT_THEORY></metadata><data><meanElements><EPOCH>2025-10-01T17:51:49.048416</EPOCH><MEAN_MOTION>13.12441205</MEAN_MOTION><ECCENTRICITY>.0001761</ECCENTRICITY><INCLINATION>87.8930</INCLINATION><RA_OF_ASC_NODE>42.0369</RA_OF_ASC_NODE><ARG_OF_PERICENTER>96.3726</ARG_OF_PERICENTER><MEAN_ANOMALY>263.7603</MEAN_ANOMALY></meanElements><tleParameters><EPHEMERIS_TYPE>0</EPHEMERIS_TYPE><CLASSIFICATION_TYPE>U</CLASSIFICATION_TYPE><NORAD_CAT_ID>49086</NORAD_CAT_ID><ELEMENT_SET_NO>999</ELEMENT_SET_NO><REV_AT_EPOCH>20128</REV_AT_EPOCH><BSTAR>.98117E-3</BSTAR><MEAN_MOTION_DOT>.366E-5</MEAN_MOTION_DOT><MEAN_MOTION_DDOT>0</MEAN_MOTION_DDOT></tleParameters></data></segment></body></omm>
<omm id="CCSDS_OMM_VERS" version="2.0">
<header><CREATION_DATE/><ORIGINATOR/></header><body><segment><metadata><OBJECT_NAME>ONEWEB-0298</OBJECT_NAME><OBJECT_ID>2021-075N</OBJECT_ID><CENTER_NAME>EARTH</CENTER_NAME><REF_FRAME>TEME</REF_FRAME><TIME_SYSTEM>UTC</TIME_SYSTEM><MEAN_ELEMENT_THEORY>SGP4</MEAN_ELEMENT_THEORY></metadata><data><meanElements><EPOCH>2025-10-01T18:45:06.401376</EPOCH><MEAN_MOTION>13.17649331</MEAN_MOTION><ECCENTRICITY>.0001675</ECCENTRICITY><INCLINATION>87.9081</INCLINATION><RA_OF_ASC_NODE>57.2640</RA_OF_ASC_NODE><ARG_OF_PERICENTER>94.0418</ARG_OF_PERICENTER><MEAN_ANOMALY>266.0905</MEAN_ANOMALY></meanElements><tleParameters><EPHEMERIS_TYPE>0</EPHEMERIS_TYPE><CLASSIFICATION_TYPE>U</CLASSIFICATION_TYPE><NORAD_CAT_ID>49087</NORAD_CAT_ID><ELEMENT_SET_NO>999</ELEMENT_SET_NO><REV_AT_EPOCH>19959</REV_AT_EPOCH><BSTAR>.62202E-3</BSTAR><MEAN_MOTION_DOT>.254E-5</MEAN_MOTION_DOT><MEAN_MOTION_DDOT>0</MEAN_MOTION_DDOT></tleParameters></data></segment></body></omm>
<omm id="CCSDS_OMM_VERS" version="2.0">
<header><CREATION_DATE/><ORIGINATOR/></header><body><segment><metadata><OBJECT_NAME>ONEWEB-0299</OBJECT_NAME><OBJECT_ID>2021-075P</OBJECT_ID><CENTER_NAME>EARTH</CENTER_NAME><REF_FRAME>TEME</REF_FRAME><TIME_SYSTEM>UTC</TIME_SYSTEM><MEAN_ELEMENT_THEORY>SGP4</MEAN_ELEMENT_THEORY></metadata><data><meanElements><EPOCH>2025-10-01T18:47:19.605120</EPOCH><MEAN_MOTION>13.17652997</MEAN_MOTION><ECCENTRICITY>.0001848</ECCENTRICITY><INCLINATION>87.9084</INCLINATION><RA_OF_ASC_NODE>57.2209</RA_OF_ASC_NODE><ARG_OF_PERICENTER>92.4850</ARG_OF_PERICENTER><MEAN_ANOMALY>267.6493</MEAN_ANOMALY></meanElements><tleParameters><EPHEMERIS_TYPE>0</EPHEMERIS_TYPE><CLASSIFICATION_TYPE>U</CLASSIFICATION_TYPE><NORAD_CAT_ID>49088</NORAD_CAT_ID><ELEMENT_SET_NO>999</ELEMENT_SET_NO><REV_AT_EPOCH>19957</REV_AT_EPOCH><BSTAR>.4E-3</BSTAR><MEAN_MOTION_DOT>.168E-5</MEAN_MOTION_DOT><MEAN_MOTION_DDOT>0</MEAN_MOTION_DDOT></tleParameters></data></segment></body></omm>
<omm id="CCSDS_OMM_VERS" version="2.0">
<header><CREATION_DATE/><ORIGINATOR/></header><body><segment><metadata><OBJECT_NAME>ONEWEB-0300</OBJECT_NAME><OBJECT_ID>2021-075Q</OBJECT_ID><CENTER_NAME>EARTH</CENTER_NAME><REF_FRAME>TEME</REF_FRAME><TIME_SYSTEM>UTC</TIME_SYSTEM><MEAN_ELEMENT_THEORY>SGP4</MEAN_ELEMENT_THEORY></metadata><data><meanElements><EPOCH>2025-10-01T15:50:21.484032</EPOCH><MEAN_MOTION>13.12441949</MEAN_MOTION><ECCENTRICITY>.0001417</ECCENTRICITY><INCLINATION>87.8937</INCLINATION><RA_OF_ASC_NODE>42.0080</RA_OF_ASC_NODE><ARG_OF_PERICENTER>91.2254</ARG_OF_PERICENTER><MEAN_ANOMALY>268.9037</MEAN_ANOMALY></meanElements><tleParameters><EPHEMERIS_TYPE>0</EPHEMERIS_TYPE><CLASSIFICATION_TYPE>U</CLASSIFICATION_TYPE><NORAD_CAT_ID>49089</NORAD_CAT_ID><ELEMENT_SET_NO>999</ELEMENT_SET_NO><REV_AT_EPOCH>20129</REV_AT_EPOCH><BSTAR>.63033E-3</BSTAR><MEAN_MOTION_DOT>.239E-5</MEAN_MOTION_DOT><MEAN_MOTION_DDOT>0</MEAN_MOTION_DDOT></tleParameters></data></segment></body></omm>
<omm id="CCSDS_OMM_VERS" version="2.0">
<header><CREATION_DATE/><ORIGINATOR/></header><body><segment><metadata><OBJECT_NAME>ONEWEB-0301</OBJECT_NAME><OBJECT_ID>2021-075R</OBJECT_ID><CENTER_NAME>EARTH</CENTER_NAME><REF_FRAME>TEME</REF_FRAME><TIME_SYSTEM>UTC</TIME_SYSTEM><MEAN_ELEMENT_THEORY>SGP4</MEAN_ELEMENT_THEORY></metadata><data><meanElements><EPOCH>2025-10-01T19:06:34.190784</EPOCH><MEAN_MOTION>13.12443638</MEAN_MOTION><ECCENTRICITY>.0001335</ECCENTRICITY><INCLINATION>87.8934</INCLINATION><RA_OF_ASC_NODE>41.9848</RA_OF_ASC_NODE><ARG_OF_PERICENTER>90.5331</ARG_OF_PERICENTER><MEAN_ANOMALY>269.5951</MEAN_ANOMALY></meanElements><tleParameters><EPHEMERIS_TYPE>0</EPHEMERIS_TYPE><CLASSIFICATION_TYPE>U</CLASSIFICATION_TYPE><NORAD_CAT_ID>49090</NORAD_CAT_ID><ELEMENT_SET_NO>999</ELEMENT_SET_NO><REV_AT_EPOCH>20067</REV_AT_EPOCH><BSTAR>.10004E-2</BSTAR><MEAN_MOTION_DOT>.373E-5</MEAN_MOTION_DOT><MEAN_MOTION_DDOT>0</MEAN_MOTION_DDOT></tleParameters></data></segment></body></omm>
<omm id="CCSDS_OMM_VERS" version="2.0">
<header><CREATION_DATE/><ORIGINATOR/></header><body><segment><metadata><OBJECT_NAME>ONEWEB-0302</OBJECT_NAME><OBJECT_ID>2021-075S</OBJECT_ID><CENTER_NAME>EARTH</CENTER_NAME><REF_FRAME>TEME</REF_FRAME><TIME_SYSTEM>UTC</TIME_SYSTEM><MEAN_ELEMENT_THEORY>SGP4</MEAN_ELEMENT_THEORY></metadata><data><meanElements><EPOCH>2025-10-01T18:47:52.532160</EPOCH><MEAN_MOTION>13.12443822</MEAN_MOTION><ECCENTRICITY>.0001992</ECCENTRICITY><INCLINATION>87.8939</INCLINATION><RA_OF_ASC_NODE>41.9942</RA_OF_ASC_NODE><ARG_OF_PERICENTER>105.0045</ARG_OF_PERICENTER><MEAN_ANOMALY>255.1304</MEAN_ANOMALY></meanElements><tleParameters><EPHEMERIS_TYPE>0</EPHEMERIS_TYPE><CLASSIFICATION_TYPE>U</CLASSIFICATION_TYPE><NORAD_CAT_ID>49091</NORAD_CAT_ID><ELEMENT_SET_NO>999</ELEMENT_SET_NO><REV_AT_EPOCH>20065</REV_AT_EPOCH><BSTAR>-.14932E-3</BSTAR><MEAN_MOTION_DOT>-.41E-6</MEAN_MOTION_DOT><MEAN_MOTION_DDOT>0</MEAN_MOTION_DDOT></tleParameters></data></segment></body></omm>
<omm id="CCSDS_OMM_VERS" version="2.0">
<header><CREATION_DATE/><ORIGINATOR/></header><body><segment><metadata><OBJECT_NAME>ONEWEB-0304</OBJECT_NAME><OBJECT_ID>2021-075T</OBJECT_ID><CENTER_NAME>EARTH</CENTER_NAME><REF_FRAME>TEME</REF_FRAME><TIME_SYSTEM>UTC</TIME_SYSTEM><MEAN_ELEMENT_THEORY>SGP4</MEAN_ELEMENT_THEORY></metadata><data><meanElements><EPOCH>2025-10-01T20:00:14.576256</EPOCH><MEAN_MOTION>13.17648878</MEAN_MOTION><ECCENTRICITY>.0001827</ECCENTRICITY><INCLINATION>87.9080</INCLINATION><RA_OF_ASC_NODE>57.2417</RA_OF_ASC_NODE><ARG_OF_PERICENTER>93.6684</ARG_OF_PERICENTER><MEAN_ANOMALY>266.4656</MEAN_ANOMALY></meanElements><tleParameters><EPHEMERIS_TYPE>0</EPHEMERIS_TYPE><CLASSIFICATION_TYPE>U</CLASSIFICATION_TYPE><NORAD_CAT_ID>49092</NORAD_CAT_ID><ELEMENT_SET_NO>999</ELEMENT_SET_NO><REV_AT_EPOCH>19955</REV_AT_EPOCH><BSTAR>.19565E-3</BSTAR><MEAN_MOTION_DOT>.89E-6</MEAN_MOTION_DOT><MEAN_MOTION_DDOT>0</MEAN_MOTION_DDOT></tleParameters></data></segment></body></omm>
<omm id="CCSDS_OMM_VERS" version="2.0">
<header><CREATION_DATE/><ORIGINATOR/></header><body><segment><metadata><OBJECT_NAME>ONEWEB-0305</OBJECT_NAME><OBJECT_ID>2021-075U</OBJECT_ID><CENTER_NAME>EARTH</CENTER_NAME><REF_FRAME>TEME</REF_FRAME><TIME_SYSTEM>UTC</TIME_SYSTEM><MEAN_ELEMENT_THEORY>SGP4</MEAN_ELEMENT_THEORY></metadata><data><meanElements><EPOCH>2025-10-01T19:50:31.784064</EPOCH><MEAN_MOTION>13.17648546</MEAN_MOTION><ECCENTRICITY>.0002058</ECCENTRICITY><INCLINATION>87.9085</INCLINATION><RA_OF_ASC_NODE>57.2199</RA_OF_ASC_NODE><ARG_OF_PERICENTER>88.9567</ARG_OF_PERICENTER><MEAN_ANOMALY>271.1800</MEAN_ANOMALY></meanElements><tleParameters><EPHEMERIS_TYPE>0</EPHEMERIS_TYPE><CLASSIFICATION_TYPE>U</CLASSIFICATION_TYPE><NORAD_CAT_ID>49093</NORAD_CAT_ID><ELEMENT_SET_NO>999</ELEMENT_SET_NO><REV_AT_EPOCH>19958</REV_AT_EPOCH><BSTAR>.17354E-3</BSTAR><MEAN_MOTION_DOT>.8E-6</MEAN_MOTION_DOT><MEAN_MOTION_DDOT>0</MEAN_MOTION_DDOT></tleParameters></data></segment></body></omm>
<omm id="CCSDS_OMM_VERS" version="2.0">
<header><CREATION_DATE/><ORIGINATOR/></header><body><segment><metadata><OBJECT_NAME>ONEWEB-0308</OBJECT_NAME><OBJECT_ID>2021-075V</OBJECT_ID><CENTER_NAME>EARTH</CENTER_NAME><REF_FRAME>TEME</REF_FRAME><TIME_SYSTEM>UTC</TIME_SYSTEM><MEAN_ELEMENT_THEORY>SGP4</MEAN_ELEMENT_THEORY></metadata><data><meanElements><EPOCH>2025-10-01T18:38:32.061408</EPOCH><MEAN_MOTION>13.12444001</MEAN_MOTION><ECCENTRICITY>.0001682</ECCENTRICITY><INCLINATION>87.8939</INCLINATION><RA_OF_ASC_NODE>41.9873</RA_OF_ASC_NODE><ARG_OF_PERICENTER>99.2302</ARG_OF_PERICENTER><MEAN_ANOMALY>260.9017</MEAN_ANOMALY></meanElements><tleParameters><EPHEMERIS_TYPE>0</EPHEMERIS_TYPE><CLASSIFICATION_TYPE>U</CLASSIFICATION_TYPE><NORAD_CAT_ID>49094</NORAD_CAT_ID><ELEMENT_SET_NO>999</ELEMENT_SET_NO><REV_AT_EPOCH>20066</REV_AT_EPOCH><BSTAR>-.52833E-3</BSTAR><MEAN_MOTION_DOT>-.177E-5</MEAN_MOTION_DOT><MEAN_MOTION_DDOT>0</MEAN_MOTION_DDOT></tleParameters></data></segment></body></omm>

</ndm>
